satname,norad_id,inclination_deg,eccentricity,mean_motion_rev_per_day,perigee_km,apogee_km,l1,l2
STARLINK-1554,46055,53.159,0.000102,15.31711693,470.0065573246429,471.40372112104524,1 46055U 20055AE  26152.23757176  .00006139  00000+0  20933-3 0  9994,2 46055  53.1590  85.4132 0001020 119.2731 240.8372 15.31711693321879
STARLINK-1564,46058,53.1609,0.0001349,15.30192894,474.31176668018634,476.16080679294737,1 46058U 20055AH  26152.08992405 -.00002099  00000+0 -58758-4 0  9996,2 46058  53.1609  86.9817 0001349  98.1817 261.9337 15.30192894321839
STARLINK-1570,46059,53.1606,0.0001253,15.31718821,469.82573412081,471.54204863619,1 46059U 20055AJ  26152.06977992  .00007579  00000+0  25561-3 0  9990,2 46059  53.1606  86.0826 0001253  81.0390 279.0753 15.31718821321803
STARLINK-1572,46060,53.1602,0.0001493,15.30207186,474.170411141994,476.216815663156,1 46060U 20055AK  26152.20154697  .00002329  00000+0  90710-4 0  9994,2 46060  53.1602  86.2102 0001493  78.2257 281.8911 15.30207186321821
STARLINK-1573,46061,53.1598,0.0001157,15.31707001,469.92671303469797,471.5115383421835,1 46061U 20055AL  26152.25154090  .00004857  00000+0  16812-3 0  9995,2 46061  53.1598  85.2013 0001157  99.8307 260.2825 15.31707001321870
STARLINK-1577,46063,53.161,0.0001279,15.31716679,469.8143114370605,471.5662414543749,1 46063U 20055AN  26152.21424828  .00010101  00000+0  33666-3 0  9997,2 46063  53.1610  85.3698 0001279 108.3510 251.7631 15.31716679321864
STARLINK-1583,46064,53.1611,0.0001318,15.31678839,469.90038548976463,471.70576609374257,1 46064U 20055AP  26152.58335648  .00023156  00000+0  75613-3 0  9991,2 46064  53.1611  84.1536 0001318  91.7353  67.2834 15.31678839  5867
STARLINK-1536,46070,53.1613,0.000137,15.31715831,469.75451456169776,471.631093928062,1 46070U 20055AV  26152.16433655  .00008405  00000+0  28218-3 0  9998,2 46070  53.1613  73.4900 0001370 105.6625 254.4528 15.31715831322021
STARLINK-1542,46073,53.1636,0.0001067,15.31716149,469.96108628095135,471.4226263588889,1 46073U 20055AY  26152.18870955  .00012133  00000+0  40189-3 0  9995,2 46073  53.1636  76.3486 0001067  84.4160 275.6963 15.31716149321975
STARLINK-1549,46074,53.0495,0.0004961,15.28727062,476.21439607742286,483.01865912751146,1 46074U 20055AZ  26152.20216025  .00023388  00000+0  83593-3 0  9991,2 46074  53.0495  73.3956 0004961 110.3925 249.7607 15.28727062322005
STARLINK-1551,46075,53.1589,0.0001089,15.30214254,474.42618446937104,475.91883528062226,1 46075U 20055BA  26152.01555313  .00005228  00000+0  18843-3 0  9996,2 46075  53.1589  74.0228 0001089 102.4901 257.6222 15.30214254321990
STARLINK-1552,46076,53.1601,0.0001034,15.31716651,469.98219116173186,471.3985286597608,1 46076U 20055BB  26152.20655884  .00010619  00000+0  35328-3 0  9999,2 46076  53.1601  72.8132 0001034  78.0199 282.0919 15.31716651322011
STARLINK-1559,46077,53.0247,0.0002235,15.37570261,451.7699249262887,454.823575812703,1 46077U 20055BC  26151.97087342  .00055356  00000+0  14792-2 0  9999,2 46077  53.0247  43.8150 0002235  83.6696 276.4560 15.37570261322361
STARLINK-1566,46079,53.1608,0.0001352,15.31716172,469.76582610721834,471.6177494114272,1 46079U 20055BE  26152.14594625  .00008949  00000+0  29965-3 0  9993,2 46079  53.1608  72.9486 0001352 107.8889 252.2260 15.31716172322021
STARLINK-1568,46080,53.0589,0.0003583,15.53513887,404.0450930061206,408.9069466961455,1 46080U 20055BF  26151.99645034  .00050486  00000+0  78313-3 0  9992,2 46080  53.0589 353.3391 0003583  66.3364 293.8021 15.53513887323115
STARLINK-1578,46082,53.1606,0.0001382,15.31707686,469.7705721210268,471.6635953897767,1 46082U 20055BH  26152.21559112  .00000455  00000+0  26425-4 0  9990,2 46082  53.1606  73.1428 0001382  96.8905 263.2254 15.31707686322026
STARLINK-1579,46083,53.1609,8.78e-05,15.31721048,470.0759270599683,471.2785788427864,1 46083U 20055BJ  26152.20188266  .00011914  00000+0  39479-3 0  9992,2 46083  53.1609  72.7421 0000878  82.8095 277.3006 15.31721048322021
STARLINK-1622,46128,53.0139,0.0007674,15.82347502,318.6608877791441,328.94702676036104,1 46128U 20057M   26152.58335648  .00150575  00000+0  70213-3 0  9991,2 46128  53.0139 167.6227 0007674  32.2924 261.9986 15.82347502  5947
STARLINK-1623,46129,53.0407,0.0006206,15.73321884,345.23558326495186,353.58581546940513,1 46129U 20057N   26152.58335648  .00108291  00000+0  76128-3 0  9991,2 46129  53.0407 205.3665 0006206  10.4193 334.1035 15.73321884  5974
STARLINK-1596,46141,53.0344,0.0007085,15.58353819,387.6240400244915,397.21792068265313,1 46141U 20057AA  26152.48561253  .00093102  00000+0  11954-2 0  9996,2 46141  53.0344 187.6461 0007085   8.1342 351.9783 15.58353819320287
STARLINK-1597,46142,53.0419,0.0004012,15.73150498,347.2000216057395,352.59859794070053,1 46142U 20057AB  26152.58335648  .00069854  00000+0  49880-3 0  9992,2 46142  53.0419 245.1025 0004012  17.6801 103.2916 15.73150498  5763
STARLINK-1606,46144,53.0364,0.0008618,15.87775278,302.75905116980994,314.2841759561479,1 46144U 20057AD  26152.58335648  .00344104  00000+0  12057-2 0  9993,2 46144  53.0364 198.8191 0008618 354.7371 237.3678 15.87775278  6001
STARLINK-1608,46146,53.1595,0.0003457,15.35341658,457.5419533380182,462.2697761747104,1 46146U 20057AF  26152.53919791  .00055904  00000+0  16045-2 0  9995,2 46146  53.1595 278.7550 0003457 322.6380  37.4382 15.35341658319032
STARLINK-1667,46155,53.0102,0.0008549,15.87129504,304.6173017908741,316.05325168964464,1 46155U 20057AQ  26152.58335648  .00270895  00000+0  98846-3 0  9991,2 46155  53.0102 167.0611 0008549  36.3257 160.1915 15.87129504  5851
STARLINK-1545,46156,53.0389,0.0007059,15.80919103,323.1065117572034,332.57401045443294,1 46156U 20057AR  26152.58335648  .00236586  00000+0  11656-2 0  9994,2 46156  53.0389 203.0619 0007059 343.3617 326.4860 15.80919103  5945
STARLINK-1595,46159,53.0419,0.0004316,15.71069527,352.9327262275501,358.74549440597457,1 46159U 20057AU  26152.58335648  .00074573  00000+0  58076-3 0  9991,2 46159  53.0419 247.7575 0004316   4.6346 344.3349 15.71069527  5977
STARLINK-1598,46160,53.0444,4.78e-05,15.70912004,355.967362946064,356.6111740973338,1 46160U 20057AV  26152.58335648  .00045143  00000+0  35712-3 0  9996,2 46160  53.0444 233.9062 0000478 194.2281 303.7702 15.70912004  5961
STARLINK-1626,46167,53.0409,0.0003391,15.71001861,353.7489153908973,358.31602912698236,1 46167U 20057BC  26152.58335648  .00037238  00000+0  29453-3 0  9994,2 46167  53.0409 243.4119 0003391 358.7999 177.5274 15.71001861  5869
